STARLINK-32556          
1 61858U 24202P   26068.46196539 -.00000709  00000+0 -16253-4 0  9991
2 61858  43.0009 239.2027 0001320 255.5118 104.5587 15.27573886 75301
FLOCK 4G-30             
1 62679U 25009BY  26068.70871344  .00013147  00000+0  49475-3 0  9999
2 62679  97.3969 150.6012 0003795 342.4152  17.6955 15.27244548121341
